[{"OBJECT_NAME":"STARLINK-5322","OBJECT_ID":"2023-010AL","EPOCH":"2026-03-09T09:00:13.300416","MEAN_MOTION":14.98337368,"ECCENTRICITY":0.00028967,"INCLINATION":70.0005,"RA_OF_ASC_NODE":45.0513,"ARG_OF_PERICENTER":272.1045,"MEAN_ANOMALY":87.9783,"EPHEMERIS_TYPE":0,"CLASSIFICATION_TYPE":"U","NORAD_CAT_ID":55303,"ELEMENT_SET_NO":999,"REV_AT_EPOCH":17273,"BSTAR":6.6190871e-5,"MEAN_MOTION_DOT":6.97e-6,"MEAN_MOTION_DDOT":0},{"OBJECT_NAME":"FENGYUN 1C DEB","OBJECT_ID":"1999-025MT","EPOCH":"2026-03-09T21:02:02.442624","MEAN_MOTION":14.74130884,"ECCENTRICITY":0.01136959,"INCLINATION":98.7454,"RA_OF_ASC_NODE":163.3635,"ARG_OF_PERICENTER":282.2255,"MEAN_ANOMALY":202.4233,"EPHEMERIS_TYPE":0,"CLASSIFICATION_TYPE":"U","NORAD_CAT_ID":30018,"ELEMENT_SET_NO":999,"REV_AT_EPOCH":1720,"BSTAR":0.00065605178,"MEAN_MOTION_DOT":4.733e-5,"MEAN_MOTION_DDOT":0}]
